{
  "norad_id": 50173,
  "name": "STARLINK-3289",
  "history": [
    {
      "epoch": "2026-04-14T15:10:47.870400Z",
      "apogee_km": 532.6031476988628,
      "perigee_km": 529.0132597710017,
      "latitude_deg": -2.861581104318527e-05,
      "longitude_deg": 6.640587048040573,
      "height_km": 530.8646592397336,
      "semi_major_axis_km": 6908.945203734932,
      "eccentricity": 0.0002598,
      "inclination_deg": 53.2145,
      "raan_deg": 77.1462,
      "arg_perigee_deg": 62.1415,
      "mean_anomaly_deg": 297.9841,
      "mean_motion_rev_day": 15.1176797
    },
    {
      "epoch": "2026-04-15T14:58:47.735904Z",
      "apogee_km": 532.5115420215798,
      "perigee_km": 528.9576184806983,
      "latitude_deg": -2.2814123966349795e-05,
      "longitude_deg": 4.190323832224497,
      "height_km": 530.8785433207137,
      "semi_major_axis_km": 6908.871580251139,
      "eccentricity": 0.0002572,
      "inclination_deg": 53.2149,
      "raan_deg": 72.6728,
      "arg_perigee_deg": 64.9903,
      "mean_anomaly_deg": 295.1357,
      "mean_motion_rev_day": 15.11792135
    },
    {
      "epoch": "2026-04-16T14:46:46.505856Z",
      "apogee_km": 532.4934428367778,
      "perigee_km": 528.8524999818455,
      "latitude_deg": 4.121003428026365e-05,
      "longitude_deg": 1.7457813201291923,
      "height_km": 530.8614894499937,
      "semi_major_axis_km": 6908.809971409311,
      "eccentricity": 0.0002635,
      "inclination_deg": 53.2149,
      "raan_deg": 68.2005,
      "arg_perigee_deg": 67.1631,
      "mean_anomaly_deg": 292.9641,
      "mean_motion_rev_day": 15.11812357
    },
    {
      "epoch": "2026-04-17T20:55:31.284768Z",
      "apogee_km": 532.5043979966958,
      "perigee_km": 528.6743382727291,
      "latitude_deg": 6.261093003994991e-06,
      "longitude_deg": -97.34306459277259,
      "height_km": 530.8003422704572,
      "semi_major_axis_km": 6908.726368134712,
      "eccentricity": 0.00027719,
      "inclination_deg": 53.2154,
      "raan_deg": 62.5363,
      "arg_perigee_deg": 69.0762,
      "mean_anomaly_deg": 291.0528,
      "mean_motion_rev_day": 15.11839799
    },
    {
      "epoch": "2026-04-18T14:22:40.399680Z",
      "apogee_km": 532.4593681949227,
      "perigee_km": 528.5877548162553,
      "latitude_deg": -1.6773498770005237e-05,
      "longitude_deg": -3.1270103944935026,
      "height_km": 530.7279406271577,
      "semi_major_axis_km": 6908.660561505589,
      "eccentricity": 0.0002802,
      "inclination_deg": 53.2158,
      "raan_deg": 59.2571,
      "arg_perigee_deg": 69.102,
      "mean_anomaly_deg": 291.0273,
      "mean_motion_rev_day": 15.118614
    },
    {
      "epoch": "2026-04-19T06:14:37.333248Z",
      "apogee_km": 532.4762629614816,
      "perigee_km": 528.5231410405968,
      "latitude_deg": 3.1464379717990635e-05,
      "longitude_deg": 115.25291607829023,
      "height_km": 530.7230860489416,
      "semi_major_axis_km": 6908.636702001038,
      "eccentricity": 0.0002861,
      "inclination_deg": 53.2163,
      "raan_deg": 56.2758,
      "arg_perigee_deg": 70.1413,
      "mean_anomaly_deg": 289.9889,
      "mean_motion_rev_day": 15.11869232
    },
    {
      "epoch": "2026-04-20T06:02:31.432416Z",
      "apogee_km": 532.4406520161801,
      "perigee_km": 528.4129593174766,
      "latitude_deg": 1.612592216881604e-05,
      "longitude_deg": 112.8269260342724,
      "height_km": 530.7148147028757,
      "semi_major_axis_km": 6908.563805666829,
      "eccentricity": 0.0002915,
      "inclination_deg": 53.2159,
      "raan_deg": 51.8026,
      "arg_perigee_deg": 72.4681,
      "mean_anomaly_deg": 287.6631,
      "mean_motion_rev_day": 15.11893161
    }
  ]
}